$$SOE
2461288.500000000, A.D. 2026-Sep-05 00:00:00.0000, -3.769595251314041E+08, 2.845408480986121E+08, 1.625337657795535E+07,
2461295.500000000, A.D. 2026-Sep-12 00:00:00.0000, -3.845479980614172E+08, 2.779521288387600E+08, 1.658882201887384E+07,
2461302.500000000, A.D. 2026-Sep-19 00:00:00.0000, -3.919621419400941E+08, 2.712376200903973E+08, 1.691673472788943E+07,
2461309.500000000, A.D. 2026-Sep-26 00:00:00.0000, -3.992010251516774E+08, 2.644020478331416E+08, 1.723707100398710E+07,
2461316.500000000, A.D. 2026-Oct-03 00:00:00.0000, -4.062638245491043E+08, 2.574500674101525E+08, 1.754979192518003E+07,
2461323.500000000, A.D. 2026-Oct-10 00:00:00.0000, -4.131498203831786E+08, 2.503862632220456E+08, 1.785486313476500E+07,
2461330.500000000, A.D. 2026-Oct-17 00:00:00.0000, -4.198583914497703E+08, 2.432151485352001E+08, 1.815225463178013E+07,
2461337.500000000, A.D. 2026-Oct-24 00:00:00.0000, -4.263890104292990E+08, 2.359411653656163E+08, 1.844194056164598E+07,
2461344.500000000, A.D. 2026-Oct-31 00:00:00.0000, -4.327412393177262E+08, 2.285686843564061E+08, 1.872389899254233E+07,
2461351.500000000, A.D. 2026-Nov-07 00:00:00.0000, -4.389147246073818E+08, 2.211020047086543E+08, 1.899811165255098E+07,
2461358.500000000, A.D. 2026-Nov-14 00:00:00.0000, -4.449091920136878E+08, 2.135453550394357E+08, 1.926456368174957E+07,
2461365.500000000, A.D. 2026-Nov-21 00:00:00.0000, -4.507244425567964E+08, 2.059028958360935E+08, 1.952324362122874E+07,
2461372.500000000, A.D. 2026-Nov-28 00:00:00.0000, -4.563603509938846E+08, 1.981787204878257E+08, 1.977414348484270E+07,
2461379.500000000, A.D. 2026-Dec-05 00:00:00.0000, -4.618168629780609E+08, 1.903768542284237E+08, 2.001725852825749E+07,
2461386.500000000, A.D. 2026-Dec-12 00:00:00.0000, -4.670939907733290E+08, 1.825012540902101E+08, 2.025258695457138E+07,
2461393.500000000, A.D. 2026-Dec-19 00:00:00.0000, -4.721918094094017E+08, 1.745558098654608E+08, 2.048012973016881E+07,
2461400.500000000, A.D. 2026-Dec-26 00:00:00.0000, -4.771104534156640E+08, 1.665443451993172E+08, 2.069989045294271E+07,
2461407.500000000, A.D. 2027-Jan-02 00:00:00.0000, -4.818501138542565E+08, 1.584706186161494E+08, 2.091187523198014E+07,
2461414.500000000, A.D. 2027-Jan-09 00:00:00.0000, -4.864110355306399E+08, 1.503383244925480E+08, 2.111609256957275E+07,
2461421.500000000, A.D. 2027-Jan-16 00:00:00.0000, -4.907935143416249E+08, 1.421510939788859E+08, 2.131255324289843E+07,
2461428.500000000, A.D. 2027-Jan-23 00:00:00.0000, -4.949978947104843E+08, 1.339124958229623E+08, 2.150127017772365E+07,
2461435.500000000, A.D. 2027-Jan-30 00:00:00.0000, -4.990245669176844E+08, 1.256260370411558E+08, 2.168225829275975E+07,
2461442.500000000, A.D. 2027-Feb-06 00:00:00.0000, -5.028739638996383E+08, 1.172951637707491E+08, 2.185553430322555E+07,
2461449.500000000, A.D. 2027-Feb-13 00:00:00.0000, -5.065465579736857E+08, 1.089232635175114E+08, 2.202111662519246E+07,
2461456.500000000, A.D. 2027-Feb-20 00:00:00.0000, -5.100428598517991E+08, 1.005136680030675E+08, 2.217902553250108E+07,
2461463.500000000, A.D. 2027-Feb-27 00:00:00.0000, -5.133634185454533E+08, 9.206965339565191E+07, 2.232928317522283E+07,
2461470.500000000, A.D. 2027-Mar-06 00:00:00.0000, -5.165088191391804E+08, 8.359443984475049E+07, 2.247191333963278E+07,
2461477.500000000, A.D. 2027-Mar-13 00:00:00.0000, -5.194796800273191E+08, 7.509119236569524E+07, 2.260694126353299E+07,
2461484.500000000, A.D. 2027-Mar-20 00:00:00.0000, -5.222766507390516E+08, 6.656302223584097E+07, 2.273439354185068E+07,
2461491.500000000, A.D. 2027-Mar-27 00:00:00.0000, -5.249004101460639E+08, 5.801298835044735E+07, 2.285429805876207E+07,
2461498.500000000, A.D. 2027-Apr-03 00:00:00.0000, -5.273516648460827E+08, 4.944409848798972E+07, 2.296668392356273E+07,
2461505.500000000, A.D. 2027-Apr-10 00:00:00.0000, -5.296311476572998E+08, 4.085931050553928E+07, 2.307158140634343E+07,
2461512.500000000, A.D. 2027-Apr-17 00:00:00.0000, -5.317396161981693E+08, 3.226153344772831E+07, 2.316902187010974E+07,
2461519.500000000, A.D. 2027-Apr-24 00:00:00.0000, -5.336778514701707E+08, 2.365362850533197E+07, 2.325903768686211E+07,
2461526.500000000, A.D. 2027-May-01 00:00:00.0000, -5.354466561407537E+08, 1.503840984982521E+07, 2.334166211230960E+07,
2461533.500000000, A.D. 2027-May-08 00:00:00.0000, -5.370468522157869E+08, 6.418646091061153E+06, 2.341692915207013E+07,
2461540.500000000, A.D. 2027-May-15 00:00:00.0000, -5.384792795951428E+08, -2.202936689833163E+06, 2.348487363443102E+07,
2461547.500000000, A.D. 2027-May-22 00:00:00.0000, -5.397447970728990E+08, -1.082365292525975E+07, 2.354553142117763E+07,
2461554.500000000, A.D. 2027-May-29 00:00:00.0000, -5.408442824242060E+08, -1.944085803237488E+07, 2.359893932868282E+07,
2461561.500000000, A.D. 2027-Jun-05 00:00:00.0000, -5.417786306905448E+08, -2.805194823907961E+07, 2.364513493406056E+07,
2461568.500000000, A.D. 2027-Jun-12 00:00:00.0000, -5.425487526671978E+08, -3.665435933394148E+07, 2.368415648575114E+07,
2461575.500000000, A.D. 2027-Jun-19 00:00:00.0000, -5.431555739215283E+08, -4.524556527623589E+07, 2.371604287246545E+07,
2461582.500000000, A.D. 2027-Jun-26 00:00:00.0000, -5.436000340607837E+08, -5.382307692805253E+07, 2.374083360357112E+07,
2461589.500000000, A.D. 2027-Jul-03 00:00:00.0000, -5.438830861152475E+08, -6.238444090044837E+07, 2.375856878961090E+07,
2461596.500000000, A.D. 2027-Jul-10 00:00:00.0000, -5.440056959977158E+08, -7.092723850517058E+07, 2.376928912044022E+07,
2461603.500000000, A.D. 2027-Jul-17 00:00:00.0000, -5.439688420008230E+08, -7.944908485108308E+07, 2.377303583464063E+07,
2461610.500000000, A.D. 2027-Jul-24 00:00:00.0000, -5.437735141738061E+08, -8.794762814834216E+07, 2.376985066089135E+07,
2461617.500000000, A.D. 2027-Jul-31 00:00:00.0000, -5.434207131653680E+08, -9.642054898497142E+07, 2.375977571296073E+07,
2461624.500000000, A.D. 2027-Aug-07 00:00:00.0000, -5.429114487314141E+08, -1.048655584242637E+08, 2.374285345094537E+07,
2461631.500000000, A.D. 2027-Aug-14 00:00:00.0000, -5.422467402070700E+08, -1.132803951767179E+08, 2.371912689911241E+07,
2461638.500000000, A.D. 2027-Aug-21 00:00:00.0000, -5.414276183240417E+08, -1.216628252110945E+08, 2.368863978867092E+07,
2461645.500000000, A.D. 2027-Aug-28 00:00:00.0000, -5.404551249416345E+08, -1.300106426008867E+08, 2.365143640909823E+07,
2461652.500000000, A.D. 2027-Sep-04 00:00:00.0000, -5.393303118706698E+08, -1.383216691029577E+08, 2.360756148071119E+07,
2461659.500000000, A.D. 2027-Sep-11 00:00:00.0000, -5.380542401833278E+08, -1.465937531292435E+08, 2.355706012211367E+07,
2461666.500000000, A.D. 2027-Sep-18 00:00:00.0000, -5.366279798739469E+08, -1.548247687614955E+08, 2.349997784681626E+07,
2461673.500000000, A.D. 2027-Sep-25 00:00:00.0000, -5.350526096402926E+08, -1.630126148863280E+08, 2.343636056134729E+07,
2461680.500000000, A.D. 2027-Oct-02 00:00:00.0000, -5.333292167086016E+08, -1.711552144227006E+08, 2.336625455989110E+07,
2461687.500000000, A.D. 2027-Oct-09 00:00:00.0000, -5.314588966785702E+08, -1.792505136462756E+08, 2.328970651271294E+07,
2461694.500000000, A.D. 2027-Oct-16 00:00:00.0000, -5.294427533242964E+08, -1.872964816655171E+08, 2.320676343782591E+07,
2461701.500000000, A.D. 2027-Oct-23 00:00:00.0000, -5.272818980908766E+08, -1.952911100549687E+08, 2.311747263139297E+07,
2461708.500000000, A.D. 2027-Oct-30 00:00:00.0000, -5.249774489114919E+08, -2.032324120347525E+08, 2.302188157222428E+07,
2461715.500000000, A.D. 2027-Nov-06 00:00:00.0000, -5.225305295075796E+08, -2.111184200673761E+08, 2.292003799913862E+07,
2461722.500000000, A.D. 2027-Nov-13 00:00:00.0000, -5.199422711566578E+08, -2.189471839476565E+08, 2.281199017347863E+07,
2461729.500000000, A.D. 2027-Nov-20 00:00:00.0000, -5.172138140257626E+08, -2.267167715714371E+08, 2.269778688195781E+07,
2461736.500000000, A.D. 2027-Nov-27 00:00:00.0000, -5.143463064525390E+08, -2.344252694178251E+08, 2.257747727381044E+07,
2461743.500000000, A.D. 2027-Dec-04 00:00:00.0000, -5.113409041962373E+08, -2.420707818301227E+08, 2.245111079254697E+07,
2461750.500000000, A.D. 2027-Dec-11 00:00:00.0000, -5.081987702078721E+08, -2.496514300591249E+08, 2.231873717400919E+07,
2461757.500000000, A.D. 2027-Dec-18 00:00:00.0000, -5.049210746438648E+08, -2.571653514079187E+08, 2.218040645780391E+07,
2461764.500000000, A.D. 2027-Dec-25 00:00:00.0000, -5.015089949708655E+08, -2.646106984802651E+08, 2.203616899806073E+07,
2461771.500000000, A.D. 2028-Jan-01 00:00:00.0000, -4.979637161200533E+08, -2.719856385177000E+08, 2.188607547100826E+07,
$$EOE